     2.10           N: GPS NAV DATA                         RINEX VERSION / TYPE
teqc  2013Mar15     gpsops              20140511 00:05:34UTCPGM / RUN BY / DATE
Linux 2.4.21-27.ELsmp|Opteron|gcc -static|Linux x86_64|=+   COMMENT
MADR                                    MARKER NAME         COMMENT
13407S012                               MARKER NUMBER       COMMENT
4849202.3940 -360328.9929 4114913.1862                      COMMENT
                                                            COMMENT
This data is provided as a public service by NASA/JPL.      COMMENT
No warranty is expressed or implied regarding suitability   COMMENT
for use.  For further information, contact:                 COMMENT
Dave Stowers, NASA/JPL m/s 238-600                          COMMENT
4800 Oak Grove Drive, Pasadena CA 91109 USA                 COMMENT
                                                            END OF HEADER
28 14  5 10  4  0  0.0 3.536096774042D-04 2.842170943040D-12 0.000000000000D+00
    8.600000000000D+01 2.625000000000D+01 3.917306028663D-09-7.543499332455D-01
    1.506879925728D-06 1.912850805093D-02 9.933486580849D-06 5.153675037384D+03
    5.328000000000D+05-2.067536115646D-07 2.925716859028D+00 2.570450305939D-07
    9.868209125034D-01 2.103125000000D+02-1.715754711225D+00-8.054264063856D-09
    4.789485215569D-10 1.000000000000D+00 1.791000000000D+03 0.000000000000D+00
    2.800000000000D+00 0.000000000000D+00-1.071020960808D-08 8.600000000000D+01
    5.256000000000D+05 4.000000000000D+00
32 14  5 10  4  0  0.0-4.321900196373D-04 8.071765478235D-12 0.000000000000D+00
    7.700000000000D+01 6.125000000000D+01 4.594834250433D-09 2.505107064656D+00
    3.149732947350D-06 1.141474442557D-02 9.873881936073D-06 5.153753221512D+03
    5.328000000000D+05-1.974403858185D-07-1.946742129167D-01 1.825392246246D-07
    9.481741439447D-01 1.827187500000D+02-1.607089387438D-01-7.988189883030D-09
   -1.642925577302D-11 1.000000000000D+00 1.791000000000D+03 0.000000000000D+00
    2.000000000000D+00 0.000000000000D+00-3.259629011154D-09 7.700000000000D+01
    5.256000000000D+05 4.000000000000D+00
11 14  5 10  4  0  0.0-4.876577295363D-04-3.183231456205D-12 0.000000000000D+00
    3.300000000000D+01-5.600000000000D+01 6.367765242982D-09 2.102676785019D+00
   -3.173947334290D-06 1.490939175710D-02 5.867332220078D-06 5.153701929092D+03
    5.328000000000D+05 6.519258022308D-08-1.644722170903D+00-2.961605787277D-07
    8.901018435831D-01 2.272187500000D+02 1.281427855242D+00-8.793223415908D-09
   -2.364384200378D-10 1.000000000000D+00 1.791000000000D+03 0.000000000000D+00
    2.000000000000D+00 0.000000000000D+00-1.210719347000D-08 3.300000000000D+01
    5.256300000000D+05 4.000000000000D+00
14 14  5 10  4  0  0.0 1.742606982589D-04-3.410605131648D-12 0.000000000000D+00
    7.900000000000D+01 2.990625000000D+01 4.488044087908D-09-1.671123573439D+00
    1.545995473862D-06 7.452560239471D-03 3.898516297340D-06 5.153651489258D+03
    5.328000000000D+05 2.570450305939D-07 8.419684316390D-01 3.166496753693D-08
    9.704325654059D-01 3.114062500000D+02-2.000414491282D+00-8.159625595444D-09
   -5.285934466102D-11 1.000000000000D+00 1.791000000000D+03 0.000000000000D+00
    2.800000000000D+00 0.000000000000D+00-9.313225746155D-09 7.900000000000D+01
    5.256300000000D+05 4.000000000000D+00
17 14  5 10  4  0  0.0-9.189778938890D-05-3.069544618484D-12 0.000000000000D+00
    9.300000000000D+01-6.812500000000D+00 4.796271212519D-09-1.602064676379D+00
   -1.788139343262D-07 9.286214597523D-03 4.993751645088D-06 5.153582878113D+03
    5.328000000000D+05 1.359730958939D-07-2.331583828122D+00 5.774199962616D-08
    9.684459914114D-01 2.846875000000D+02-2.099663596560D+00-8.171411800672D-09
    2.314382117591D-10 1.000000000000D+00 1.791000000000D+03 0.000000000000D+00
    2.000000000000D+00 0.000000000000D+00-1.024454832077D-08 9.300000000000D+01
    5.256300000000D+05 4.000000000000D+00
19 14  5 10  4  0  0.0-4.559732042253D-04-2.273736754432D-12 0.000000000000D+00
    8.000000000000D+00-1.081250000000D+01 4.835201405547D-09-2.374979195119D+00
   -7.934868335724D-07 1.029271865264D-02 5.222856998444D-06 5.153606870651D+03
    5.328000000000D+05 4.842877388000D-08-2.280717647170D+00-2.644956111908D-07
    9.655352189203D-01 2.826875000000D+02 4.243118051241D-01-8.200341577142D-09
    2.182233755938D-10 1.000000000000D+00 1.791000000000D+03 0.000000000000D+00
    2.000000000000D+00 0.000000000000D+00-1.490116119385D-08 8.000000000000D+00
    5.256300000000D+05 4.000000000000D+00
 1 14  5 10  4  0  0.0 1.168902963400D-05 1.250555214938D-12 0.000000000000D+00
    3.000000000000D+01-4.071875000000D+01 4.686266630387D-09 2.567090299489D+00
   -2.123415470123D-06 3.006028477103D-03 8.707866072655D-06 5.153680713654D+03
    5.328000000000D+05-9.313225746155D-08-1.321906185533D+00 1.862645149231D-09
    9.605034814654D-01 2.115937500000D+02 3.052541907194D-01-8.012119451221D-09
   -2.946551307118D-10 1.000000000000D+00 1.791000000000D+03 0.000000000000D+00
    2.000000000000D+00 0.000000000000D+00 5.587935447693D-09 3.000000000000D+01
    5.256300000000D+05 4.000000000000D+00
23 14  5 10  4  0  0.0-1.924857497215D-05-3.069544618484D-12 0.000000000000D+00
    4.900000000000D+01 3.381250000000D+01 4.847701926243D-09-2.686249355559D+00
    1.655891537666D-06 9.294162038714D-03 4.185363650322D-06 5.153788829803D+03
    5.328000000000D+05-6.519258022308D-08 7.769337559638D-01-1.285225152969D-07
    9.521241807539D-01 2.949375000000D+02-2.794003284309D+00-8.303203004591D-09
    3.357282701443D-11 1.000000000000D+00 1.791000000000D+03 0.000000000000D+00
    2.000000000000D+00 0.000000000000D+00-2.002343535423D-08 4.900000000000D+01
    5.256300000000D+05 4.000000000000D+00
13 14  5 10  4  0  0.0 1.351814717054D-06-3.751665644813D-12 0.000000000000D+00
    9.200000000000D+01 2.243750000000D+01 4.340180785951D-09-2.024957717217D+00
    1.192092895508D-06 5.377136985771D-03 4.360452294350D-06 5.153590654373D+03
    5.328000000000D+05-7.636845111847D-08 8.737085576741D-01 8.009374141693D-08
    9.778425863373D-01 3.049375000000D+02 2.249218014627D+00-8.139981920063D-09
   -6.143113028173D-11 1.000000000000D+00 1.791000000000D+03 0.000000000000D+00
    2.000000000000D+00 0.000000000000D+00-1.117587089539D-08 9.200000000000D+01
    5.270400000000D+05 4.000000000000D+00
31 14  5 10  4  0  0.0 3.342516720295D-04 0.000000000000D+00 0.000000000000D+00
    8.100000000000D+01-5.928125000000D+01 3.951593171145D-09 1.802673984516D+00
   -2.928078174591D-06 7.990206475370D-03 7.385388016701D-06 5.153544996262D+03
    5.328000000000D+05 1.490116119385D-08 1.844721012103D+00 1.303851604462D-07
    9.782745480102D-01 2.455312500000D+02-6.363012919772D-01-7.769609349702D-09
   -2.700112470522D-10 1.000000000000D+00 1.791000000000D+03 0.000000000000D+00
    2.000000000000D+00 0.000000000000D+00-1.303851604462D-08 8.100000000000D+01
    5.272200000000D+05 4.000000000000D+00
 4 14  5 10  4  0  0.0 6.861984729767D-06 0.000000000000D+00 0.000000000000D+00
    9.400000000000D+01-4.590625000000D+01 5.284148677431D-09 2.599327179839D-01
   -2.147629857063D-06 1.056227134541D-02 8.864328265190D-06 5.153730781555D+03
    5.328000000000D+05-5.587935447693D-08-1.335089027497D+00 7.450580596924D-08
    9.380574963514D-01 1.965000000000D+02 1.093481996097D+00-8.585000456871D-09
   -4.385896975928D-10 1.000000000000D+00 1.791000000000D+03 0.000000000000D+00
    2.000000000000D+00 0.000000000000D+00-6.519258022308D-09 9.400000000000D+01
    5.298300000000D+05 4.000000000000D+00
10 14  5 10  4  0  0.0-1.249043270946D-04-1.477928890381D-12 0.000000000000D+00
    1.230000000000D+02 6.346875000000D+01 4.952349142363D-09-5.207420632943D-01
    3.328546881676D-06 1.354355842341D-02 9.663403034210D-06 5.153734754562D+03
    5.328000000000D+05 1.117587089539D-08-2.660975440079D-01 2.272427082062D-07
    9.424549037497D-01 1.826875000000D+02 8.631147544797D-01-8.472852928334D-09
    7.857470152314D-12 1.000000000000D+00 1.791000000000D+03 0.000000000000D+00
    2.800000000000D+00 0.000000000000D+00-2.793967723846D-09 1.230000000000D+02
    5.321700000000D+05 4.000000000000D+00
13 14  5 10  6  0  0.0 1.324340701103D-06-3.751665644813D-12 0.000000000000D+00
    9.300000000000D+01 2.365625000000D+01 4.349466887040D-09-9.746940545483D-01
    1.154839992523D-06 5.377103108913D-03 4.326924681664D-06 5.153590984344D+03
    5.400000000000D+05-6.519258022308D-08 8.736493358244D-01-1.862645149231D-08
    9.778420479834D-01 3.057187500000D+02 2.249184812238D+00-8.210341993700D-09
   -2.357241045694D-11 1.000000000000D+00 1.791000000000D+03 0.000000000000D+00
    2.000000000000D+00 0.000000000000D+00-1.117587089539D-08 9.300000000000D+01
    5.328000000000D+05 4.000000000000D+00
20 14  5 10  6  0  0.0 1.879446208477D-04 3.865352482535D-12 0.000000000000D+00
    6.700000000000D+01 4.534375000000D+01 5.177358514906D-09 1.580859095115D+00
    2.201646566391D-06 5.787003668956D-03 1.000426709652D-05 5.153805158615D+03
    5.400000000000D+05-1.247972249985D-07-3.414925016534D-01-1.452863216400D-07
    9.271658327956D-01 1.680937500000D+02 1.331685542734D+00-8.314989209819D-09
    1.571494030463D-11 1.000000000000D+00 1.791000000000D+03 0.000000000000D+00
    2.000000000000D+00 0.000000000000D+00-8.381903171539D-09 6.700000000000D+01
    5.328000000000D+05 4.000000000000D+00
32 14  5 10  6  0  0.0-4.321318119764D-04 8.071765478235D-12 0.000000000000D+00
    8.100000000000D+01 6.240625000000D+01 4.626264131042D-09-2.727948493913D+00
    3.084540367126D-06 1.141546678264D-02 1.001916825771D-05 5.153751903534D+03
    5.400000000000D+05-2.458691596985D-07-1.947316324513D-01 2.793967723846D-08
    9.481744526204D-01 1.773125000000D+02-1.607053897045D-01-7.932473276495D-09
    2.964409193828D-11 1.000000000000D+00 1.791000000000D+03 0.000000000000D+00
    2.000000000000D+00 0.000000000000D+00-3.259629011154D-09 8.100000000000D+01
    5.328000000000D+05 4.000000000000D+00
